NORAD_CAT_ID,OBJECT_NAME,OBJECT_TYPE,EPOCH,MEAN_MOTION,ECCENTRICITY,INCLINATION,RA_OF_ASC_NODE,ARG_OF_PERICENTER,MEAN_ANOMALY,BSTAR,MEAN_MOTION_DOT,MEAN_MOTION_DDOT,TLE_LINE0,TLE_LINE1,TLE_LINE2,SEMIMAJOR_AXIS,PERIOD,APOGEE,PERIGEE,DECAYED
54055.0,STARLINK-5158,PAYLOAD,2023-05-23 14:42:00,15.08840065,9.75e-05,53.2161,248.0826,78.3314,281.7788,4.2482e-05,3.88e-06,0.0,0 STARLINK-5158,1 54055U 22136E   23143.61250200  .00000388  00000-0  42482-4 0  9995,2 54055  53.2161 248.0826 0000975  78.3314 281.7788 15.08840065 33178,6917.88,95.438,540.42,539.071,0.0
54055.0,STARLINK-5158,PAYLOAD,2023-05-24 06:35:51,15.08829958,9.66e-05,53.2161,245.1106,67.1031,293.0063,0.00023859,3.51e-05,0.0,0 STARLINK-5158,1 54055U 22136E   23144.27490566  .00003510  00000-0  23859-3 0  9995,2 54055  53.2161 245.1106 0000966  67.1031 293.0063 15.08829958 33270,6917.911,95.438,540.444,539.108,0.0
54055.0,STARLINK-5158,PAYLOAD,2023-05-26 09:28:11,15.08845238,0.0001241,53.2168,235.5948,70.109,290.0036,6.7911e-05,7.93e-06,0.0,0 STARLINK-5158,1 54055U 22136E   23146.39458263  .00000793  00000-0  67911-4 0  9996,2 54055  53.2168 235.5948 0001241  70.1090 290.0036 15.08845238 33591,6917.864,95.437,540.588,538.871,0.0
54055.0,STARLINK-5158,PAYLOAD,2023-05-26 12:38:58,15.08846236,0.0001099,53.2166,234.9991,84.9565,275.1552,7.128e-05,8.47e-06,0.0,0 STARLINK-5158,1 54055U 22136E   23146.52706061  .00000847  00000-0  71280-4 0  9997,2 54055  53.2166 234.9991 0001099  84.9565 275.1552 15.08846236 33137,6917.861,95.437,540.487,538.966,0.0
54055.0,STARLINK-5158,PAYLOAD,2023-05-27 10:54:22,15.08835106,0.0001101,53.2163,230.8356,85.3833,274.7285,7.3256e-06,-1.71e-06,0.0,0 STARLINK-5158,1 54055U 22136E   23147.45442865 -.00000171  00000-0  73256-5 0  9996,2 54055  53.2163 230.8356 0001101  85.3833 274.7285 15.08835106 33751,6917.895,95.438,540.522,538.999,0.0
54055.0,STARLINK-5158,PAYLOAD,2023-05-27 15:40:31,15.08839021,0.0001062,53.2164,229.9444,89.6116,270.4998,3.1565e-05,2.15e-06,0.0,0 STARLINK-5158,1 54055U 22136E   23147.65314540  .00000215  00000-0  31565-4 0  9990,2 54055  53.2164 229.9444 0001062  89.6116 270.4998 15.08839021 33301,6917.883,95.438,540.483,539.014,0.0
54055.0,STARLINK-5158,PAYLOAD,2023-05-28 05:59:00,15.08836839,9.57e-05,53.2153,227.2665,88.1754,271.9348,-4.4768e-06,-3.59e-06,0.0,0 STARLINK-5158,1 54055U 22136E   23148.24930874 -.00000359  00000-0 -44768-5 0  9991,2 54055  53.2153 227.2665 0000957  88.1754 271.9348 15.08836839 33397,6917.89,95.438,540.417,539.093,0.0
54055.0,STARLINK-5158,PAYLOAD,2023-05-28 10:45:09,15.08840116,9.85e-05,53.2152,226.3747,83.1854,276.925,1.1824e-05,-1e-06,0.0,0 STARLINK-5158,1 54055U 22136E   23148.44802654 -.00000100  00000-0  11824-4 0  9996,2 54055  53.2152 226.3747 0000985  83.1854 276.9250 15.08840116 33428,6917.88,95.438,540.426,539.064,0.0
54055.0,STARLINK-5158,PAYLOAD,2023-05-28 21:52:51,15.08844651,9.39e-05,53.2154,224.2933,83.6027,276.5072,2.7507e-05,1.5e-06,0.0,0 STARLINK-5158,1 54055U 22136E   23148.91170280  .00000150  00000-0  27507-4 0  9990,2 54055  53.2154 224.2933 0000939  83.6027 276.5072 15.08844651 33976,6917.866,95.437,540.381,539.082,0.0
54055.0,STARLINK-5158,PAYLOAD,2023-05-29 12:11:19,15.08842761,9.9e-05,53.2157,221.6173,83.7432,276.3672,8.7621e-05,1.107e-05,0.0,0 STARLINK-5158,1 54055U 22136E   23149.50786333  .00001107  00000-0  87621-4 0  9994,2 54055  53.2157 221.6173 0000990  83.7432 276.3672 15.08842761 33585,6917.872,95.437,540.422,539.052,0.0
54055.0,STARLINK-5158,PAYLOAD,2023-05-29 21:43:38,15.08837733,9.97e-05,53.216,219.833,86.7301,273.3805,2.7302e-05,1.47e-06,0.0,0 STARLINK-5158,1 54055U 22136E   23149.90530827  .00000147  00000-0  27302-4 0  9996,2 54055  53.2160 219.8330 0000997  86.7301 273.3805 15.08837733 33643,6917.887,95.438,540.442,539.063,0.0
54055.0,STARLINK-5158,PAYLOAD,2023-05-30 04:05:11,15.08831882,0.0001025,53.2156,218.6443,90.2237,269.8872,4.2414e-05,3.87e-06,0.0,0 STARLINK-5158,1 54055U 22136E   23150.17027272  .00000387  00000-0  42414-4 0  9999,2 54055  53.2156 218.6443 0001025  90.2237 269.8872 15.08831882 34162,6917.905,95.438,540.479,539.061,0.0
54055.0,STARLINK-5158,PAYLOAD,2023-05-30 12:02:07,15.08834361,0.000107,53.2161,217.158,92.0687,268.0428,2.5534e-06,-2.47e-06,0.0,0 STARLINK-5158,1 54055U 22136E   23150.50147342 -.00000247  00000-0  25534-5 0  9998,2 54055  53.2161 217.1580 0001070  92.0687 268.0428 15.08834361 33738,6917.898,95.438,540.503,539.022,0.0
54055.0,STARLINK-5158,PAYLOAD,2023-05-30 21:34:26,15.08835719,0.0001134,53.2161,215.373,83.712,276.4001,1.5658e-06,-2.63e-06,0.0,0 STARLINK-5158,1 54055U 22136E   23150.89891390 -.00000263  00000-0  15658-5 0  9993,2 54055  53.2161 215.3730 0001134  83.7120 276.4001 15.08835719 33799,6917.893,95.438,540.543,538.974,0.0
54055.0,STARLINK-5158,PAYLOAD,2023-05-31 10:17:31,15.08840339,0.0001076,53.2156,212.9939,82.8676,277.2438,1.7931e-05,-2e-08,0.0,0 STARLINK-5158,1 54055U 22136E   23151.42883125 -.00000002  00000-0  17931-4 0  9996,2 54055  53.2156 212.9939 0001076  82.8676 277.2438 15.08840339 34358,6917.879,95.438,540.489,539.0,0.0
54055.0,STARLINK-5158,PAYLOAD,2023-05-31 11:52:54,15.0884099,0.0001069,53.2156,212.6966,82.6547,277.4567,2.2869e-05,7.6e-07,0.0,0 STARLINK-5158,1 54055U 22136E   23151.49507064  .00000076  00000-0  22869-4 0  9994,2 54055  53.2156 212.6966 0001069  82.6547 277.4567 15.08840990 33887,6917.877,95.437,540.482,539.003,0.0
54055.0,STARLINK-5158,PAYLOAD,2023-05-31 21:25:12,15.0883998,0.0001085,53.2158,210.9125,81.3511,278.7604,6.298e-05,7.15e-06,0.0,0 STARLINK-5158,1 54055U 22136E   23151.89251012  .00000715  00000-0  62980-4 0  9995,2 54055  53.2158 210.9125 0001085  81.3511 278.7604 15.08839980 33942,6917.88,95.438,540.496,538.995,0.0
54055.0,STARLINK-5158,PAYLOAD,2023-06-01 10:08:17,15.08842376,0.0001052,53.2155,208.5334,80.3974,279.7137,0.00011653,1.567e-05,0.0,0 STARLINK-5158,1 54055U 22136E   23152.42242736  .00001567  00000-0  11653-3 0  9994,2 54055  53.2155 208.5334 0001052  80.3974 279.7137 15.08842376 34025,6917.873,95.437,540.466,539.01,0.0
54055.0,STARLINK-5158,PAYLOAD,2023-06-01 21:15:59,15.08841776,0.0001042,53.2153,206.452,78.9863,281.1246,9.3744e-05,1.205e-05,0.0,0 STARLINK-5158,1 54055U 22136E   23152.88610813  .00001205  00000-0  93744-4 0  9990,2 54055  53.2153 206.4520 0001042  78.9863 281.1246 15.08841776 34577,6917.875,95.437,540.461,539.019,0.0
54055.0,STARLINK-5158,PAYLOAD,2023-06-02 09:59:05,15.08837932,0.0001164,53.216,204.0735,78.0984,282.0139,2.1656e-05,5.7e-07,0.0,0 STARLINK-5158,1 54055U 22136E   23153.41603325  .00000057  00000-0  21656-4 0  9997,2 54055  53.2160 204.0735 0001164  78.0984 282.0139 15.08837932 34656,6917.887,95.438,540.557,538.946,0.0
54055.0,STARLINK-5158,PAYLOAD,2023-06-03 08:14:29,15.08836404,0.0001116,53.2157,199.9092,87.001,273.111,-3.902e-05,-9.09e-06,0.0,0 STARLINK-5158,1 54055U 22136E   23154.34339678 -.00000909  00000-0 -39020-4 0  9999,2 54055  53.2157 199.9092 0001116  87.0010 273.1110 15.08836404 34313,6917.891,95.438,540.528,538.984,0.0
54055.0,STARLINK-5158,PAYLOAD,2023-06-04 08:05:16,15.08839988,0.0001043,53.2154,195.4475,98.5762,261.5349,6.8286e-05,7.99e-06,0.0,0 STARLINK-5158,1 54055U 22136E   23155.33699116  .00000799  00000-0  68286-4 0  9996,2 54055  53.2154 195.4475 0001043  98.5762 261.5349 15.08839988 34940,6917.88,95.438,540.467,539.024,0.0
54055.0,STARLINK-5158,PAYLOAD,2023-06-04 19:12:58,15.08838786,9.74e-05,53.2152,193.3657,86.0368,274.0736,7.6483e-05,9.3e-06,0.0,0 STARLINK-5158,1 54055U 22136E   23155.80067191  .00000930  00000-0  76483-4 0  9995,2 54055  53.2152 193.3657 0000974  86.0368 274.0736 15.08838786 34532,6917.884,95.438,540.423,539.075,0.0
54055.0,STARLINK-5158,PAYLOAD,2023-06-05 12:42:12,15.08837755,9.74e-05,53.2156,190.0964,93.9515,266.1589,7.1499e-05,8.5e-06,0.0,0 STARLINK-5158,1 54055U 22136E   23156.52931407  .00000850  00000-0  71499-4 0  9998,2 54055  53.2156 190.0964 0000974  93.9515 266.1589 15.08837755 34647,6917.887,95.438,540.426,539.078,0.0
54055.0,STARLINK-5158,PAYLOAD,2023-06-05 23:49:55,15.08833998,9.74e-05,53.2152,188.0153,92.0207,268.0897,-3.07e-05,-7.76e-06,0.0,0 STARLINK-5158,1 54055U 22136E   23156.99300071 -.00000776  00000-0 -30700-4 0  9995,2 54055  53.2152 188.0153 0000974  92.0207 268.0897 15.08833998 35197,6917.899,95.438,540.438,539.09,0.0
54055.0,STARLINK-5158,PAYLOAD,2023-06-06 10:57:37,15.08833918,9.41e-05,53.2148,185.9337,89.5962,270.5138,-3.2671e-05,-8.08e-06,0.0,0 STARLINK-5158,1 54055U 22136E   23157.45668217 -.00000808  00000-0 -32671-4 0  9991,2 54055  53.2148 185.9337 0000941  89.5962 270.5138 15.08833918 34787,6917.899,95.438,540.415,539.113,0.0
54055.0,STARLINK-5158,PAYLOAD,2023-06-07 10:48:23,15.0884054,9.26e-05,53.215,181.4728,81.3942,278.7155,3.808e-05,3.18e-06,0.0,0 STARLINK-5158,1 54055U 22136E   23158.45027766  .00000318  00000-0  38080-4 0  9994,2 54055  53.2150 181.4728 0000926  81.3942 278.7155 15.08840540 35415,6917.879,95.438,540.384,539.103,0.0
54055.0,STARLINK-5158,PAYLOAD,2023-06-07 18:45:19,15.08839334,9.45e-05,53.2149,179.9859,79.6929,280.417,4.1538e-05,3.73e-06,0.0,0 STARLINK-5158,1 54055U 22136E   23158.78147846  .00000373  00000-0  41538-4 0  9995,2 54055  53.2149 179.9859 0000945  79.6929 280.4170 15.08839334 34983,6917.882,95.438,540.401,539.094,0.0
54055.0,STARLINK-5158,PAYLOAD,2023-06-08 07:28:24,15.08839454,9.08e-05,53.215,177.6062,78.608,281.5014,0.0001071,1.417e-05,0.0,0 STARLINK-5158,1 54055U 22136E   23159.31139673  .00001417  00000-0  10710-3 0  9991,2 54055  53.2150 177.6062 0000908  78.6080 281.5014 15.08839454 35064,6917.882,95.438,540.375,539.119,0.0
54055.0,STARLINK-5158,PAYLOAD,2023-06-08 23:22:16,15.08840653,9.31e-05,53.2149,174.6326,78.1627,281.9469,3.9832e-05,3.46e-06,0.0,0 STARLINK-5158,1 54055U 22136E   23159.97379783  .00000346  00000-0  39832-4 0  9998,2 54055  53.2149 174.6326 0000931  78.1627 281.9469 15.08840653 35645,6917.878,95.438,540.387,539.099,0.0
